[{"name": "COSMOS 2433 (720)", "line1": "1 32275U 07052A   26187.62445233 -.00000046  00000+0  00000+0 0  9995", "line2": "2 32275  65.5650 315.2799 0003185 201.3457 158.6520  2.13104455145476"}, {"name": "COSMOS 2432 (719)", "line1": "1 32276U 07052B   26188.59810169 -.00000049  00000+0  00000+0 0  9990", "line2": "2 32276  65.5804 315.3755 0007481 325.2447   5.5151  2.13103453145511"}, {"name": "COSMOS 2434 (721)", "line1": "1 32393U 07065A   26188.36273306  .00000121  00000+0  00000+0 0  9995", "line2": "2 32393  64.3197 191.2352 0001269 327.0177 129.1051  2.13101429144203"}, {"name": "COSMOS 2436 (723)", "line1": "1 32395U 07065C   26187.74076837  .00000116  00000+0  00000+0 0  9992", "line2": "2 32395  64.3281 191.3285 0017275 353.5093 117.6939  2.13100220144148"}, {"name": "COSMOS 2456 (730)", "line1": "1 36111U 09070A   26188.26918932 -.00000021  00000+0  00000+0 0  9995", "line2": "2 36111  65.0226  70.2874 0003874 336.2686 206.3509  2.13103871128854"}, {"name": "COSMOS 2457 (733)", "line1": "1 36112U 09070B   26188.62621909 -.00000023  00000+0  00000+0 0  9993", "line2": "2 36112  65.0084  70.1188 0003705 123.5915 100.1518  2.13101330128869"}, {"name": "COSMOS 2460 (732)", "line1": "1 36402U 10007C   26188.35860000 -.00000048  00000+0  00000+0 0  9991", "line2": "2 36402  65.4077 313.7844 0001890 129.7435 250.6526  2.13101922127169"}, {"name": "COSMOS 2476 (744)", "line1": "1 37867U 11064A   26188.33096850 -.00000020  00000+0  00000+0 0  9993", "line2": "2 37867  65.2807  72.1917 0022371 236.6236 261.7151  2.13103948114191"}, {"name": "COSMOS 2477 (745)", "line1": "1 37868U 11064B   26188.15487328 -.00000020  00000+0  00000+0 0  9998", "line2": "2 37868  65.2873  72.2772 0019396 237.9015 305.6247  2.13103195114184"}, {"name": "COSMOS 2475 (743)", "line1": "1 37869U 11064C   26188.14343966 -.00000019  00000+0  00000+0 0  9995", "line2": "2 37869  65.2942  72.2994 0025046 251.6498 238.1399  2.13101994114199"}, {"name": "COSMOS 2485 (747)", "line1": "1 39155U 13019A   26188.08816391 -.00000019  00000+0  00000+0 0  9997", "line2": "2 39155  65.4303  72.9368 0022942 232.1450 127.7096  2.13103480102701"}, {"name": "COSMOS 2492 (754)", "line1": "1 39620U 14012A   26188.51628426 -.00000049  00000+0  00000+0 0  9999", "line2": "2 39620  65.2849 313.2456 0010306 320.1231  39.8129  2.13103517 95674"}, {"name": "COSMOS 2500 (755)", "line1": "1 40001U 14032A   26188.21653122 -.00000048  00000+0  00000+0 0  9993", "line2": "2 40001  65.2207 313.0011 0007970 188.6383 171.3606  2.13106140 93888"}, {"name": "COSMOS 2501 (702K)", "line1": "1 40315U 14075A   26187.54030231  .00000114  00000+0  00000+0 0  9996", "line2": "2 40315  63.6180 189.7021 0022679 212.6524 147.2323  2.13101455 90266"}, {"name": "COSMOS 2514 (751)", "line1": "1 41330U 16008A   26187.99410816 -.00000047  00000+0  00000+0 0  9998", "line2": "2 41330  65.0087 312.3272 0012034 200.2262 159.7396  2.13102582 81040"}, {"name": "COSMOS 2522 (752)", "line1": "1 42939U 17055A   26187.36252817  .00000112  00000+0  00000+0 0  9995", "line2": "2 42939  64.0804 191.2316 0010922 240.7707 119.1473  2.13102015 68381"}, {"name": "COSMOS 2527 (756)", "line1": "1 43508U 18053A   26188.26296356 -.00000019  00000+0  00000+0 0  9990", "line2": "2 43508  65.5882  73.2382 0006718 232.6359 127.3650  2.13102315 62700"}, {"name": "COSMOS 2529 (757)", "line1": "1 43687U 18086A   26187.42074304  .00000113  00000+0  00000+0 0  9992", "line2": "2 43687  64.2965 191.9448 0012128 256.2466 103.6470  2.13102124 59699"}, {"name": "COSMOS 2534 (758)", "line1": "1 44299U 19030A   26188.88417133  .00000124  00000+0  00000+0 0  9996", "line2": "2 44299  64.3703 191.9194 0013559 274.9800 262.1964  2.13102297 55366"}, {"name": "COSMOS 2544 (759)", "line1": "1 44850U 19088A   26188.20757394 -.00000019  00000+0  00000+0 0  9998", "line2": "2 44850  65.5757  73.0630 0012575 256.0344 103.8880  2.13103181 51140"}, {"name": "COSMOS 2545 (760)", "line1": "1 45358U 20018A   26188.87178718 -.00000052  00000+0  00000+0 0  9994", "line2": "2 45358  64.3414 311.6924 0009182 229.9531 129.9792  2.13102750 49100"}, {"name": "COSMOS 2547 (705K)", "line1": "1 46805U 20075A   26187.65368286  .00000115  00000+0  00000+0 0  9990", "line2": "2 46805  64.6011 191.8258 0009442 239.8670 120.0683  2.13100180 44320"}, {"name": "COSMOS 2557 (706K)", "line1": "1 52984U 22075A   26188.28712434 -.00000050  00000+0  00000+0 0  9994", "line2": "2 52984  64.2857 313.7776 0010595 272.6042  87.2866  2.13102498 31145"}, {"name": "COSMOS 2559 (707K)", "line1": "1 54031U 22130A   26188.57607023 -.00000051  00000+0  00000+0 0  9991", "line2": "2 54031  64.2580 313.8500 0012956 180.1855 179.8260  2.13101678 29127"}, {"name": "COSMOS 2564 (761)", "line1": "1 54377U 22161A   26187.94997608  .00000118  00000+0  00000+0 0  9992", "line2": "2 54377  64.7434 192.0556 0012256 225.0920 134.8385  2.13102000 28056"}, {"name": "COSMOS 2569 (703K)", "line1": "1 57517U 23114A   26188.43154497 -.00000021  00000+0  00000+0 0  9990", "line2": "2 57517  65.3135  71.9380 0009941 296.3813  63.5792  2.13103726 22699"}, {"name": "COSMOS 2584 (704K)", "line1": "1 63130U 25042A   26185.50280755 -.00000010  00000+0  00000+0 0  9990", "line2": "2 63130  65.0947  72.2135 0006059 222.1818 137.8396  2.13103855 10411"}, {"name": "COSMOS 2596 (708K)", "line1": "1 65590U 25206B   26188.60403351 -.00000051  00000+0  00000+0 0  9992", "line2": "2 65590  64.6217 314.2756 0011132 308.3716  26.9282  2.13100766  6345"}]